0 BREEZE-M DEB
1 32031U 06006J   13280.51010203  .00000054  00000-0  34923-3 0  4412
2 32031 051.4751 334.2971 5083099 026.8857 023.7326 05.15816883124794
0 BREEZE-M DEB
1 32031U 06006J   13284.38479196  .00000115  00000-0  59738-3 0  4421
2 32031 051.4746 331.6017 5083371 028.9182 018.7982 05.15818329124998
0 BREEZE-M DEB
1 32031U 06006J   13285.54566266  .00000074  00000-0  48186-3 0  4435
2 32031 051.4745 330.7943 5083446 029.5271 014.4660 05.15819009125054
0 BREEZE-M DEB
1 32031U 06006J   13287.29051825  .00000080  00000-0  49394-3 0  4449
2 32031 051.4741 329.5804 5083553 030.4423 014.5720 05.15819639125148
0 BREEZE-M DEB
1 32031U 06006J   13292.12884998  .00000173  00000-0  72113-3 0  4451
2 32031 051.4730 326.2148 5083936 032.9789 359.1166 05.15821788125395
0 BREEZE-M DEB
1 32031U 06006J   13293.30044186  .00000143  00000-0  62908-3 0  4468
2 32031 051.4722 325.3992 5083995 033.5946 014.7085 05.15822623125450
